{
"type": "FeatureCollection",
"name": "map_noise_0.25m",
"crs": { "type": "name", "properties": { "name": "urn:ogc:def:crs:OGC:1.3:CRS84" } },
"features": [
{ "type": "Feature", "properties": { "row_post_id": null, "vine_id": "ROW01VINE01", "vine_uuid": "004ee41c-30d9-4a62-a0b0-d8ab2c132962", "feature_name": "ROW01VINE01", "vine_vine_row_id": "row_1", "variety": "Pinot Noir", "clone": "Unknown", "rootstock": "Unknown", "grape_number": 50.0, "grape_yield": 7.746584978, "image_url": "http://cabbage-xps-8900:9000/riseholme/Block_1/row_1/ROW01VINE01/photo001.jpg?X-Amz-Algorithm=AWS4-HMAC-SHA256&X-Amz-Credential=KODXtyXxsNTbFrLEitSg%2F20250326%2Fus-east-1%2Fs3%2Faws4_request&X-Amz-Date=20250326T161247Z&X-Amz-Expires=604800&X-Amz-SignedHeaders=host&X-Amz-Signature=e1b7dbad3e774da20f12cba69b06fb93de47683961018b2036ba7fcb7dfdaac9", "image_timestamp": "2024-07-22 11:23:34", "measured_or_calulated": "measured", "feature_type": "vine" }, "geometry": { "type": "Point", "coordinates": [ -0.524279149003427, 53.268181851823705 ] } },
{ "type": "Feature", "properties": { "row_post_id": null, "vine_id": "ROW01VINE02", "vine_uuid": "862c783b-9ee9-471c-a7ad-04cd8fe222f7", "feature_name": "ROW01VINE02", "vine_vine_row_id": "row_1", "variety": "Pinot Noir", "clone": "Unknown", "rootstock": "Unknown", "grape_number": 41.0, "grape_yield": 2.662929905, "image_url": "", "image_timestamp": "", "measured_or_calulated": "measured", "feature_type": "vine" }, "geometry": { "type": "Point", "coordinates": [ -0.524279980560831, 53.268173321256704 ] } },
{ "type": "Feature", "properties": { "row_post_id": null, "vine_id": "ROW01VINE03", "vine_uuid": "826a3abf-834e-4715-a093-928da8a92a06", "feature_name": "ROW01VINE03", "vine_vine_row_id": "row_1", "variety": "Pinot Noir", "clone": "Unknown", "rootstock": "Unknown", "grape_number": 23.0, "grape_yield": 5.488827538, "image_url": "", "image_timestamp": "", "measured_or_calulated": "measured", "feature_type": "vine" }, "geometry": { "type": "Point", "coordinates": [ -0.524267637503776, 53.268156434649335 ] } },
{ "type": "Feature", "properties": { "row_post_id": null, "vine_id": "ROW01VINE04", "vine_uuid": "f7f2aba7-271e-474c-9ec8-b2340483a3a4", "feature_name": "ROW01VINE04", "vine_vine_row_id": "row_1", "variety": "Pinot Noir", "clone": "Unknown", "rootstock": "Unknown", "grape_number": 30.0, "grape_yield": 6.030844539, "image_url": "", "image_timestamp": "", "measured_or_calulated": "measured", "feature_type": "vine" }, "geometry": { "type": "Point", "coordinates": [ -0.524268388812166, 53.268145236427102 ] } },
{ "type": "Feature", "properties": { "row_post_id": null, "vine_id": "ROW01VINE05", "vine_uuid": "7b2ec223-eafb-453e-af52-6081bcedc767", "feature_name": "ROW01VINE05", "vine_vine_row_id": "row_1", "variety": "Pinot Noir", "clone": "Unknown", "rootstock": "Unknown", "grape_number": 50.0, "grape_yield": 1.495875907, "image_url": "", "image_timestamp": "", "measured_or_calulated": "measured", "feature_type": "vine" }, "geometry": { "type": "Point", "coordinates": [ -0.524265181695559, 53.268131663622889 ] } },
{ "type": "Feature", "properties": { "row_post_id": null, "vine_id": "ROW01VINE06", "vine_uuid": "1dc15351-bf51-4886-993a-67aa46e36763", "feature_name": "ROW01VINE06", "vine_vine_row_id": "row_1", "variety": "Pinot Noir", "clone": "Unknown", "rootstock": "Unknown", "grape_number": 40.0, "grape_yield": 7.914405615, "image_url": "", "image_timestamp": "", "measured_or_calulated": "measured", "feature_type": "vine" }, "geometry": { "type": "Point", "coordinates": [ -0.52425846657613, 53.268120529573274 ] } },
{ "type": "Feature", "properties": { "row_post_id": null, "vine_id": "ROW01VINE07", "vine_uuid": "8bcd7e94-5a70-4b0b-9314-dd68d6451ee4", "feature_name": "ROW01VINE07", "vine_vine_row_id": "row_1", "variety": "Pinot Noir", "clone": "Unknown", "rootstock": "Unknown", "grape_number": 11.0, "grape_yield": 2.748343117, "image_url": "", "image_timestamp": "", "measured_or_calulated": "measured", "feature_type": "vine" }, "geometry": { "type": "Point", "coordinates": [ -0.524258491249258, 53.268107233080812 ] } },
{ "type": "Feature", "properties": { "row_post_id": null, "vine_id": "ROW01VINE08", "vine_uuid": "3b8c5d6b-10d0-4c42-8f5b-c8d3965d6d90", "feature_name": "ROW01VINE08", "vine_vine_row_id": "row_1", "variety": "Pinot Noir", "clone": "Unknown", "rootstock": "Unknown", "grape_number": 14.0, "grape_yield": 1.356383282, "image_url": "", "image_timestamp": "", "measured_or_calulated": "measured", "feature_type": "vine" }, "geometry": { "type": "Point", "coordinates": [ -0.52425437705521, 53.268093568913578 ] } },
{ "type": "Feature", "properties": { "row_post_id": null, "vine_id": "ROW01VINE09", "vine_uuid": "9be6ee30-93d2-484e-befa-d17dd3bf5146", "feature_name": "ROW01VINE09", "vine_vine_row_id": "row_1", "variety": "Pinot Noir", "clone": "Unknown", "rootstock": "Unknown", "grape_number": 22.0, "grape_yield": 0.907638782, "image_url": "", "image_timestamp": "", "measured_or_calulated": "measured", "feature_type": "vine" }, "geometry": { "type": "Point", "coordinates": [ -0.524253330882484, 53.268083632341188 ] } },
{ "type": "Feature", "properties": { "row_post_id": null, "vine_id": "ROW01VINE10", "vine_uuid": "aa64ea64-6dc0-4e8d-9aaf-08a3e7449a95", "feature_name": "ROW01VINE10", "vine_vine_row_id": "row_1", "variety": "Pinot Noir", "clone": "Unknown", "rootstock": "Unknown", "grape_number": 18.0, "grape_yield": 0.412174825, "image_url": "", "image_timestamp": "", "measured_or_calulated": "measured", "feature_type": "vine" }, "geometry": { "type": "Point", "coordinates": [ -0.524249187012957, 53.268067884349776 ] } },
{ "type": "Feature", "properties": { "row_post_id": null, "vine_id": "ROW01VINE11", "vine_uuid": "074a05f8-7d00-4d0c-9ab9-163eeb011df7", "feature_name": "ROW01VINE11", "vine_vine_row_id": "row_1", "variety": "Pinot Noir", "clone": "Unknown", "rootstock": "Unknown", "grape_number": 43.0, "grape_yield": 4.716904127, "image_url": "http://cabbage-xps-8900:9000/riseholme/Block_1/row_1/ROW01VINE11/2024-10-30T15%3A09_photo.jpg?X-Amz-Algorithm=AWS4-HMAC-SHA256&X-Amz-Credential=KODXtyXxsNTbFrLEitSg%2F20250326%2Fus-east-1%2Fs3%2Faws4_request&X-Amz-Date=20250326T161247Z&X-Amz-Expires=604800&X-Amz-SignedHeaders=host&X-Amz-Signature=dc0be7741bbde40efdef650ee8309ba1c80c7c898cecd94f1a93565b85a769f9", "image_timestamp": "2024-10-30 15:09:00", "measured_or_calulated": "measured", "feature_type": "vine" }, "geometry": { "type": "Point", "coordinates": [ -0.524247242180686, 53.268059611350033 ] } },
{ "type": "Feature", "properties": { "row_post_id": null, "vine_id": "ROW01VINE12", "vine_uuid": "9b13808c-f6c6-4f49-ba65-517d0e33e16b", "feature_name": "ROW01VINE12", "vine_vine_row_id": "row_1", "variety": "Pinot Noir", "clone": "Unknown", "rootstock": "Unknown", "grape_number": 25.0, "grape_yield": 0.5664896, "image_url": "http://cabbage-xps-8900:9000/riseholme/Block_1/row_1/ROW01VINE12/photo001.jpg?X-Amz-Algorithm=AWS4-HMAC-SHA256&X-Amz-Credential=KODXtyXxsNTbFrLEitSg%2F20250326%2Fus-east-1%2Fs3%2Faws4_request&X-Amz-Date=20250326T161247Z&X-Amz-Expires=604800&X-Amz-SignedHeaders=host&X-Amz-Signature=faf4bdc2262a05b9ea6651db89ce091302e8b9ada76838bd45f8dcb238342d90", "image_timestamp": "2024-07-22 11:28:11", "measured_or_calulated": "measured", "feature_type": "vine" }, "geometry": { "type": "Point", "coordinates": [ -0.524243149191043, 53.268045164143004 ] } },
{ "type": "Feature", "properties": { "row_post_id": null, "vine_id": "ROW02VINE01", "vine_uuid": "bcfe2249-1e29-4469-b1fe-c5d311e7eadf", "feature_name": "ROW02VINE01", "vine_vine_row_id": "row_2", "variety": "Pinot Noir", "clone": "Unknown", "rootstock": "Unknown", "grape_number": 27.0, "grape_yield": 1.696980403, "image_url": "http://cabbage-xps-8900:9000/riseholme/Block_1/row_2/ROW02VINE01/2024-11-05T14%3A47_photo.jpg?X-Amz-Algorithm=AWS4-HMAC-SHA256&X-Amz-Credential=KODXtyXxsNTbFrLEitSg%2F20250326%2Fus-east-1%2Fs3%2Faws4_request&X-Amz-Date=20250326T161247Z&X-Amz-Expires=604800&X-Amz-SignedHeaders=host&X-Amz-Signature=f5b372743d3a7c33dbf06116c711d33a7366f24cdd489cfd0b9890f6bc38e8a8", "image_timestamp": "2024-11-05 14:47:00", "measured_or_calulated": "measured", "feature_type": "vine" }, "geometry": { "type": "Point", "coordinates": [ -0.524310299563993, 53.268182416602457 ] } },
{ "type": "Feature", "properties": { "row_post_id": null, "vine_id": "ROW02VINE02", "vine_uuid": "2414dff9-5694-4db4-883f-e39ff5d2f748", "feature_name": "ROW02VINE02", "vine_vine_row_id": "row_2", "variety": "Pinot Noir", "clone": "Unknown", "rootstock": "Unknown", "grape_number": 38.0, "grape_yield": 7.013875506, "image_url": "", "image_timestamp": "", "measured_or_calulated": "measured", "feature_type": "vine" }, "geometry": { "type": "Point", "coordinates": [ -0.524312025917999, 53.268169152419297 ] } },
{ "type": "Feature", "properties": { "row_post_id": null, "vine_id": "ROW02VINE03", "vine_uuid": "d9ee1ec3-20ad-44d3-9d6c-ad76540cf529", "feature_name": "ROW02VINE03", "vine_vine_row_id": "row_2", "variety": "Pinot Noir", "clone": "Unknown", "rootstock": "Unknown", "grape_number": 38.0, "grape_yield": 6.442758287, "image_url": "", "image_timestamp": "", "measured_or_calulated": "measured", "feature_type": "vine" }, "geometry": { "type": "Point", "coordinates": [ -0.524311583655272, 53.268154118543762 ] } },
{ "type": "Feature", "properties": { "row_post_id": null, "vine_id": "ROW02VINE04", "vine_uuid": "46ee2b2b-250d-4863-b58f-0157722e9ff4", "feature_name": "ROW02VINE04", "vine_vine_row_id": "row_2", "variety": "Pinot Noir", "clone": "Unknown", "rootstock": "Unknown", "grape_number": 48.0, "grape_yield": 5.274122475, "image_url": "", "image_timestamp": "", "measured_or_calulated": "measured", "feature_type": "vine" }, "geometry": { "type": "Point", "coordinates": [ -0.524308324476942, 53.268144045221327 ] } },
{ "type": "Feature", "properties": { "row_post_id": null, "vine_id": "ROW02VINE05", "vine_uuid": "85575bc6-d386-4ee8-ad18-dd41e442850a", "feature_name": "ROW02VINE05", "vine_vine_row_id": "row_2", "variety": "Pinot Noir", "clone": "Unknown", "rootstock": "Unknown", "grape_number": 23.0, "grape_yield": 3.944452701, "image_url": "", "image_timestamp": "", "measured_or_calulated": "measured", "feature_type": "vine" }, "geometry": { "type": "Point", "coordinates": [ -0.524298129345503, 53.268131169474991 ] } },
{ "type": "Feature", "properties": { "row_post_id": null, "vine_id": "ROW02VINE06", "vine_uuid": "b3156153-3655-40a3-8baa-a7a73220472e", "feature_name": "ROW02VINE06", "vine_vine_row_id": "row_2", "variety": "Pinot Noir", "clone": "Unknown", "rootstock": "Unknown", "grape_number": 31.0, "grape_yield": 0.055611313, "image_url": "", "image_timestamp": "", "measured_or_calulated": "measured", "feature_type": "vine" }, "geometry": { "type": "Point", "coordinates": [ -0.524300647459478, 53.268117755825401 ] } },
{ "type": "Feature", "properties": { "row_post_id": null, "vine_id": "ROW02VINE07", "vine_uuid": "21f9e5fe-098a-407a-90e7-2f3b46a9a45e", "feature_name": "ROW02VINE07", "vine_vine_row_id": "row_2", "variety": "Pinot Noir", "clone": "Unknown", "rootstock": "Unknown", "grape_number": 44.0, "grape_yield": 6.867561753, "image_url": "", "image_timestamp": "", "measured_or_calulated": "measured", "feature_type": "vine" }, "geometry": { "type": "Point", "coordinates": [ -0.524296943041362, 53.268103433476433 ] } },
{ "type": "Feature", "properties": { "row_post_id": null, "vine_id": "ROW02VINE08", "vine_uuid": "f715898b-c87c-41d7-84e4-78872d00e47b", "feature_name": "ROW02VINE08", "vine_vine_row_id": "row_2", "variety": "Pinot Noir", "clone": "Unknown", "rootstock": "Unknown", "grape_number": 14.0, "grape_yield": 6.829653134, "image_url": "", "image_timestamp": "", "measured_or_calulated": "measured", "feature_type": "vine" }, "geometry": { "type": "Point", "coordinates": [ -0.524288999266097, 53.268093008961955 ] } },
{ "type": "Feature", "properties": { "row_post_id": null, "vine_id": "ROW02VINE09", "vine_uuid": "94691a31-6ead-4548-9ca9-0bb91d58e217", "feature_name": "ROW02VINE09", "vine_vine_row_id": "row_2", "variety": "Pinot Noir", "clone": "Unknown", "rootstock": "Unknown", "grape_number": 50.0, "grape_yield": 8.959595778000001, "image_url": "", "image_timestamp": "", "measured_or_calulated": "measured", "feature_type": "vine" }, "geometry": { "type": "Point", "coordinates": [ -0.524288165946457, 53.268078294167282 ] } },
{ "type": "Feature", "properties": { "row_post_id": null, "vine_id": "ROW02VINE10", "vine_uuid": "596a2fb2-2ab6-4b42-84e4-a9891ed21bf3", "feature_name": "ROW02VINE10", "vine_vine_row_id": "row_2", "variety": "Pinot Noir", "clone": "Unknown", "rootstock": "Unknown", "grape_number": 31.0, "grape_yield": 8.90705088, "image_url": "", "image_timestamp": "", "measured_or_calulated": "measured", "feature_type": "vine" }, "geometry": { "type": "Point", "coordinates": [ -0.524288835225848, 53.268070356964408 ] } },
{ "type": "Feature", "properties": { "row_post_id": null, "vine_id": "ROW02VINE11", "vine_uuid": "2deca732-577b-4d7e-b52b-10d5e7a343a6", "feature_name": "ROW02VINE11", "vine_vine_row_id": "row_2", "variety": "Pinot Noir", "clone": "Unknown", "rootstock": "Unknown", "grape_number": 22.0, "grape_yield": 7.121537354, "image_url": "", "image_timestamp": "", "measured_or_calulated": "measured", "feature_type": "vine" }, "geometry": { "type": "Point", "coordinates": [ -0.524280252297167, 53.268055629693976 ] } },
{ "type": "Feature", "properties": { "row_post_id": null, "vine_id": "ROW02VINE12", "vine_uuid": "e88362cd-c9c1-45b6-9fbb-10f1f5a3c156", "feature_name": "ROW02VINE12", "vine_vine_row_id": "row_2", "variety": "Pinot Noir", "clone": "Unknown", "rootstock": "Unknown", "grape_number": 17.0, "grape_yield": 0.129988147, "image_url": "", "image_timestamp": "", "measured_or_calulated": "measured", "feature_type": "vine" }, "geometry": { "type": "Point", "coordinates": [ -0.524271268796331, 53.26804027838859 ] } },
{ "type": "Feature", "properties": { "row_post_id": null, "vine_id": "ROW03VINE01", "vine_uuid": "aa5c4f5d-5553-41d0-ad61-b18f4a8d0a2a", "feature_name": "ROW03VINE01", "vine_vine_row_id": "row_3", "variety": "Pinot Meunier", "clone": "Unknown", "rootstock": "Unknown", "grape_number": 22.0, "grape_yield": 3.951741717, "image_url": "", "image_timestamp": "", "measured_or_calulated": "measured", "feature_type": "vine" }, "geometry": { "type": "Point", "coordinates": [ -0.524340586019865, 53.268182565165887 ] } },
{ "type": "Feature", "properties": { "row_post_id": null, "vine_id": "ROW03VINE02", "vine_uuid": "aad52902-1973-45c7-9d4b-80b1588e01a2", "feature_name": "ROW03VINE02", "vine_vine_row_id": "row_3", "variety": "Pinot Meunier", "clone": "Unknown", "rootstock": "Unknown", "grape_number": 26.0, "grape_yield": 1.32225215, "image_url": "", "image_timestamp": "", "measured_or_calulated": "measured", "feature_type": "vine" }, "geometry": { "type": "Point", "coordinates": [ -0.524340871758808, 53.268164291077234 ] } },
{ "type": "Feature", "properties": { "row_post_id": null, "vine_id": "ROW03VINE03", "vine_uuid": "51fb01b4-86fc-4d72-b0c5-43e9fe07d21a", "feature_name": "ROW03VINE03", "vine_vine_row_id": "row_3", "variety": "Pinot Meunier", "clone": "Unknown", "rootstock": "Unknown", "grape_number": 26.0, "grape_yield": 0.590694883, "image_url": "", "image_timestamp": "", "measured_or_calulated": "measured", "feature_type": "vine" }, "geometry": { "type": "Point", "coordinates": [ -0.524346726943587, 53.268152794418647 ] } },
{ "type": "Feature", "properties": { "row_post_id": null, "vine_id": "ROW03VINE04", "vine_uuid": "6188ba3f-0c59-48e1-84b5-5090335b743e", "feature_name": "ROW03VINE04", "vine_vine_row_id": "row_3", "variety": "Pinot Meunier", "clone": "Unknown", "rootstock": "Unknown", "grape_number": 33.0, "grape_yield": 8.814035275, "image_url": "", "image_timestamp": "", "measured_or_calulated": "measured", "feature_type": "vine" }, "geometry": { "type": "Point", "coordinates": [ -0.524342850678056, 53.268138285830354 ] } },
{ "type": "Feature", "properties": { "row_post_id": null, "vine_id": "ROW03VINE05", "vine_uuid": "0ea3aa6b-4670-4046-b0b6-bf8b38d3d1c4", "feature_name": "ROW03VINE05", "vine_vine_row_id": "row_3", "variety": "Pinot Meunier", "clone": "Unknown", "rootstock": "Unknown", "grape_number": 35.0, "grape_yield": 4.618983944, "image_url": "", "image_timestamp": "", "measured_or_calulated": "measured", "feature_type": "vine" }, "geometry": { "type": "Point", "coordinates": [ -0.524338970831571, 53.268125909837302 ] } },
{ "type": "Feature", "properties": { "row_post_id": null, "vine_id": "ROW03VINE06", "vine_uuid": "dd064e85-f2f5-4f78-a2df-7001c365a07a", "feature_name": "ROW03VINE06", "vine_vine_row_id": "row_3", "variety": "Pinot Meunier", "clone": "Unknown", "rootstock": "Unknown", "grape_number": 27.0, "grape_yield": 3.585016188, "image_url": "", "image_timestamp": "", "measured_or_calulated": "measured", "feature_type": "vine" }, "geometry": { "type": "Point", "coordinates": [ -0.524330278287414, 53.268111532418928 ] } },
{ "type": "Feature", "properties": { "row_post_id": null, "vine_id": "ROW03VINE07", "vine_uuid": "c359473a-9acf-49a5-9871-537f09239c66", "feature_name": "ROW03VINE07", "vine_vine_row_id": "row_3", "variety": "Pinot Meunier", "clone": "Unknown", "rootstock": "Unknown", "grape_number": 10.0, "grape_yield": 9.053145738, "image_url": "", "image_timestamp": "", "measured_or_calulated": "measured", "feature_type": "vine" }, "geometry": { "type": "Point", "coordinates": [ -0.524335680453479, 53.268098784866496 ] } },
{ "type": "Feature", "properties": { "row_post_id": null, "vine_id": "ROW03VINE08", "vine_uuid": "28786eb1-9420-4243-86fc-49e0b880dda0", "feature_name": "ROW03VINE08", "vine_vine_row_id": "row_3", "variety": "Pinot Meunier", "clone": "Unknown", "rootstock": "Unknown", "grape_number": 15.0, "grape_yield": 1.493525701, "image_url": "", "image_timestamp": "", "measured_or_calulated": "measured", "feature_type": "vine" }, "geometry": { "type": "Point", "coordinates": [ -0.524332791873164, 53.268085202278435 ] } },
{ "type": "Feature", "properties": { "row_post_id": null, "vine_id": "ROW03VINE09", "vine_uuid": "ef7e6390-45f1-4d14-a555-97dbf2d7ce1b", "feature_name": "ROW03VINE09", "vine_vine_row_id": "row_3", "variety": "Pinot Meunier", "clone": "Unknown", "rootstock": "Unknown", "grape_number": 30.0, "grape_yield": 9.224874932000001, "image_url": "", "image_timestamp": "", "measured_or_calulated": "measured", "feature_type": "vine" }, "geometry": { "type": "Point", "coordinates": [ -0.524329451083103, 53.268079724606864 ] } },
{ "type": "Feature", "properties": { "row_post_id": null, "vine_id": "ROW03VINE10", "vine_uuid": "b33ce1a5-32c2-45b2-8302-35859c10d257", "feature_name": "ROW03VINE10", "vine_vine_row_id": "row_3", "variety": "Pinot Meunier", "clone": "Unknown", "rootstock": "Unknown", "grape_number": 16.0, "grape_yield": 5.537379434, "image_url": "", "image_timestamp": "", "measured_or_calulated": "measured", "feature_type": "vine" }, "geometry": { "type": "Point", "coordinates": [ -0.524325188567311, 53.26806401340464 ] } },
{ "type": "Feature", "properties": { "row_post_id": null, "vine_id": "ROW03VINE11", "vine_uuid": "0eacddc4-4319-495d-803a-910a8f7af7e3", "feature_name": "ROW03VINE11", "vine_vine_row_id": "row_3", "variety": "Pinot Meunier", "clone": "Unknown", "rootstock": "Unknown", "grape_number": 41.0, "grape_yield": 5.454957464, "image_url": "", "image_timestamp": "", "measured_or_calulated": "measured", "feature_type": "vine" }, "geometry": { "type": "Point", "coordinates": [ -0.524324945206342, 53.268051605562491 ] } },
{ "type": "Feature", "properties": { "row_post_id": null, "vine_id": "ROW03VINE12", "vine_uuid": "91ae40ce-6690-44e5-869d-613ebc59faa1", "feature_name": "ROW03VINE12", "vine_vine_row_id": "row_3", "variety": "Pinot Meunier", "clone": "Unknown", "rootstock": "Unknown", "grape_number": 23.0, "grape_yield": 1.410139565, "image_url": "", "image_timestamp": "", "measured_or_calulated": "measured", "feature_type": "vine" }, "geometry": { "type": "Point", "coordinates": [ -0.524323479832837, 53.268037256610889 ] } },
{ "type": "Feature", "properties": { "row_post_id": null, "vine_id": "ROW04VINE01", "vine_uuid": "ef5071a0-55f0-45a4-bf6e-934344f9da9b", "feature_name": "ROW04VINE01", "vine_vine_row_id": "row_4", "variety": "Pinot Meunier", "clone": "Unknown", "rootstock": "Unknown", "grape_number": 14.0, "grape_yield": 0.963851762, "image_url": "", "image_timestamp": "", "measured_or_calulated": "measured", "feature_type": "vine" }, "geometry": { "type": "Point", "coordinates": [ -0.524378822462427, 53.268170555750018 ] } },
{ "type": "Feature", "properties": { "row_post_id": null, "vine_id": "ROW04VINE02", "vine_uuid": "eca61926-ff74-455d-aeae-3d476be0b423", "feature_name": "ROW04VINE02", "vine_vine_row_id": "row_4", "variety": "Pinot Meunier", "clone": "Unknown", "rootstock": "Unknown", "grape_number": 23.0, "grape_yield": 1.815864075, "image_url": "", "image_timestamp": "", "measured_or_calulated": "measured", "feature_type": "vine" }, "geometry": { "type": "Point", "coordinates": [ -0.524380156670948, 53.268160954539219 ] } },
{ "type": "Feature", "properties": { "row_post_id": null, "vine_id": "ROW04VINE03", "vine_uuid": "494d9008-87c3-4e2b-be0d-27da9d57bc2c", "feature_name": "ROW04VINE03", "vine_vine_row_id": "row_4", "variety": "Pinot Meunier", "clone": "Unknown", "rootstock": "Unknown", "grape_number": 41.0, "grape_yield": 4.229298822, "image_url": "", "image_timestamp": "", "measured_or_calulated": "measured", "feature_type": "vine" }, "geometry": { "type": "Point", "coordinates": [ -0.52438243754697, 53.268146197819618 ] } },
{ "type": "Feature", "properties": { "row_post_id": null, "vine_id": "ROW04VINE04", "vine_uuid": "ecb1251f-879b-440f-8f2b-f2d2613bb6d4", "feature_name": "ROW04VINE04", "vine_vine_row_id": "row_4", "variety": "Pinot Meunier", "clone": "Unknown", "rootstock": "Unknown", "grape_number": 19.0, "grape_yield": 2.154417596, "image_url": "", "image_timestamp": "", "measured_or_calulated": "measured", "feature_type": "vine" }, "geometry": { "type": "Point", "coordinates": [ -0.52437362358204, 53.268134291631064 ] } },
{ "type": "Feature", "properties": { "row_post_id": null, "vine_id": "ROW04VINE05", "vine_uuid": "1d1d8b42-299f-4ecf-ace7-e9ed71b89d3b", "feature_name": "ROW04VINE05", "vine_vine_row_id": "row_4", "variety": "Pinot Meunier", "clone": "Unknown", "rootstock": "Unknown", "grape_number": 17.0, "grape_yield": 6.589973508, "image_url": "", "image_timestamp": "", "measured_or_calulated": "measured", "feature_type": "vine" }, "geometry": { "type": "Point", "coordinates": [ -0.524369813154942, 53.268120296728654 ] } },
{ "type": "Feature", "properties": { "row_post_id": null, "vine_id": "ROW04VINE06", "vine_uuid": "ea90259b-864b-4349-be93-f98e3eac6fde", "feature_name": "ROW04VINE06", "vine_vine_row_id": "row_4", "variety": "Pinot Meunier", "clone": "Unknown", "rootstock": "Unknown", "grape_number": 18.0, "grape_yield": 8.659483414, "image_url": "", "image_timestamp": "", "measured_or_calulated": "measured", "feature_type": "vine" }, "geometry": { "type": "Point", "coordinates": [ -0.524371774862331, 53.268110530657708 ] } },
{ "type": "Feature", "properties": { "row_post_id": null, "vine_id": "ROW04VINE07", "vine_uuid": "23ac99a3-3c9d-4bc8-9e03-b410cfae40e3", "feature_name": "ROW04VINE07", "vine_vine_row_id": "row_4", "variety": "Pinot Meunier", "clone": "Unknown", "rootstock": "Unknown", "grape_number": 18.0, "grape_yield": 5.80345169, "image_url": "", "image_timestamp": "", "measured_or_calulated": "measured", "feature_type": "vine" }, "geometry": { "type": "Point", "coordinates": [ -0.524367792631199, 53.268093980892324 ] } },
{ "type": "Feature", "properties": { "row_post_id": null, "vine_id": "ROW04VINE08", "vine_uuid": "eafd5bab-5175-4b32-8fa6-dcc5c24c1ff4", "feature_name": "ROW04VINE08", "vine_vine_row_id": "row_4", "variety": "Pinot Meunier", "clone": "Unknown", "rootstock": "Unknown", "grape_number": 29.0, "grape_yield": 5.660378227, "image_url": "", "image_timestamp": "", "measured_or_calulated": "measured", "feature_type": "vine" }, "geometry": { "type": "Point", "coordinates": [ -0.524369172322724, 53.268084651654725 ] } },
{ "type": "Feature", "properties": { "row_post_id": null, "vine_id": "ROW04VINE09", "vine_uuid": "a3b5e4dc-05c8-4d1b-870c-0f40374aff93", "feature_name": "ROW04VINE09", "vine_vine_row_id": "row_4", "variety": "Pinot Meunier", "clone": "Unknown", "rootstock": "Unknown", "grape_number": 19.0, "grape_yield": 7.357191451, "image_url": "", "image_timestamp": "", "measured_or_calulated": "measured", "feature_type": "vine" }, "geometry": { "type": "Point", "coordinates": [ -0.524366079180341, 53.268074057114823 ] } },
{ "type": "Feature", "properties": { "row_post_id": null, "vine_id": "ROW04VINE10", "vine_uuid": "14276d5c-d9f3-4e4b-b512-09c75db43045", "feature_name": "ROW04VINE10", "vine_vine_row_id": "row_4", "variety": "Pinot Meunier", "clone": "Unknown", "rootstock": "Unknown", "grape_number": 24.0, "grape_yield": 4.801644565, "image_url": "", "image_timestamp": "", "measured_or_calulated": "measured", "feature_type": "vine" }, "geometry": { "type": "Point", "coordinates": [ -0.524358201850348, 53.26805564029371 ] } },
{ "type": "Feature", "properties": { "row_post_id": null, "vine_id": "ROW04VINE11", "vine_uuid": "467d12e2-80ac-4b5c-9060-bef645bbd5b5", "feature_name": "ROW04VINE11", "vine_vine_row_id": "row_4", "variety": "Pinot Meunier", "clone": "Unknown", "rootstock": "Unknown", "grape_number": 19.0, "grape_yield": 9.751860396, "image_url": "", "image_timestamp": "", "measured_or_calulated": "measured", "feature_type": "vine" }, "geometry": { "type": "Point", "coordinates": [ -0.524363676907926, 53.268044613130527 ] } },
{ "type": "Feature", "properties": { "row_post_id": null, "vine_id": "ROW04VINE12", "vine_uuid": "719d7f65-1068-4759-820a-d2cb672719b6", "feature_name": "ROW04VINE12", "vine_vine_row_id": "row_4", "variety": "Pinot Meunier", "clone": "Unknown", "rootstock": "Unknown", "grape_number": 10.0, "grape_yield": 7.448398205, "image_url": "", "image_timestamp": "", "measured_or_calulated": "measured", "feature_type": "vine" }, "geometry": { "type": "Point", "coordinates": [ -0.524352737033659, 53.268039565668325 ] } },
{ "type": "Feature", "properties": { "row_post_id": null, "vine_id": "ROW05VINE01", "vine_uuid": "fa15a579-8e25-48ec-8e45-c576fb24378e", "feature_name": "ROW05VINE01", "vine_vine_row_id": "row_5", "variety": "Chardonnay", "clone": "Unknown", "rootstock": "Unknown", "grape_number": 19.0, "grape_yield": 7.272045621, "image_url": "", "image_timestamp": "", "measured_or_calulated": "measured", "feature_type": "vine" }, "geometry": { "type": "Point", "coordinates": [ -0.524425839389487, 53.268169072494629 ] } },
{ "type": "Feature", "properties": { "row_post_id": null, "vine_id": "ROW05VINE02", "vine_uuid": "f20533e1-2c7e-4ccf-a29a-5b89fc8bd2de", "feature_name": "ROW05VINE02", "vine_vine_row_id": "row_5", "variety": "Chardonnay", "clone": "Unknown", "rootstock": "Unknown", "grape_number": 23.0, "grape_yield": 2.915743156, "image_url": "", "image_timestamp": "", "measured_or_calulated": "measured", "feature_type": "vine" }, "geometry": { "type": "Point", "coordinates": [ -0.524425837161651, 53.268154102392081 ] } },
{ "type": "Feature", "properties": { "row_post_id": null, "vine_id": "ROW05VINE03", "vine_uuid": "12e508a8-b4f7-4303-847e-7af9befc1467", "feature_name": "ROW05VINE03", "vine_vine_row_id": "row_5", "variety": "Chardonnay", "clone": "Unknown", "rootstock": "Unknown", "grape_number": 44.0, "grape_yield": 2.806892269, "image_url": "", "image_timestamp": "", "measured_or_calulated": "measured", "feature_type": "vine" }, "geometry": { "type": "Point", "coordinates": [ -0.524425523437492, 53.268143628622738 ] } },
{ "type": "Feature", "properties": { "row_post_id": null, "vine_id": "ROW05VINE04", "vine_uuid": "f18f0a55-095e-4a16-9ef6-ea29473f8bff", "feature_name": "ROW05VINE04", "vine_vine_row_id": "row_5", "variety": "Chardonnay", "clone": "Unknown", "rootstock": "Unknown", "grape_number": 43.0, "grape_yield": 0.239507485, "image_url": "", "image_timestamp": "", "measured_or_calulated": "measured", "feature_type": "vine" }, "geometry": { "type": "Point", "coordinates": [ -0.524411668990907, 53.268130965432732 ] } },
{ "type": "Feature", "properties": { "row_post_id": null, "vine_id": "ROW05VINE05", "vine_uuid": "89e02027-62f6-4c99-aade-3bfe60b4ef5e", "feature_name": "ROW05VINE05", "vine_vine_row_id": "row_5", "variety": "Chardonnay", "clone": "Unknown", "rootstock": "Unknown", "grape_number": 33.0, "grape_yield": 0.763643856, "image_url": "", "image_timestamp": "", "measured_or_calulated": "measured", "feature_type": "vine" }, "geometry": { "type": "Point", "coordinates": [ -0.524407014653957, 53.268119755579356 ] } },
{ "type": "Feature", "properties": { "row_post_id": null, "vine_id": "ROW05VINE06", "vine_uuid": "054e2238-6662-4073-bf35-0fcda007da5c", "feature_name": "ROW05VINE06", "vine_vine_row_id": "row_5", "variety": "Chardonnay", "clone": "Unknown", "rootstock": "Unknown", "grape_number": 12.0, "grape_yield": 8.926410683, "image_url": "", "image_timestamp": "", "measured_or_calulated": "measured", "feature_type": "vine" }, "geometry": { "type": "Point", "coordinates": [ -0.524409379243616, 53.268108284148681 ] } },
{ "type": "Feature", "properties": { "row_post_id": null, "vine_id": "ROW05VINE07", "vine_uuid": "ed5a06c1-6b48-4049-a205-a463ee1b4f63", "feature_name": "ROW05VINE07", "vine_vine_row_id": "row_5", "variety": "Chardonnay", "clone": "Unknown", "rootstock": "Unknown", "grape_number": 44.0, "grape_yield": 2.838132566, "image_url": "", "image_timestamp": "", "measured_or_calulated": "measured", "feature_type": "vine" }, "geometry": { "type": "Point", "coordinates": [ -0.52440420584575, 53.268096699089917 ] } },
{ "type": "Feature", "properties": { "row_post_id": null, "vine_id": "ROW05VINE08", "vine_uuid": "7a39d8d7-b124-4b35-b34b-15e107e2cfe4", "feature_name": "ROW05VINE08", "vine_vine_row_id": "row_5", "variety": "Chardonnay", "clone": "Unknown", "rootstock": "Unknown", "grape_number": 21.0, "grape_yield": 7.917051107, "image_url": "", "image_timestamp": "", "measured_or_calulated": "measured", "feature_type": "vine" }, "geometry": { "type": "Point", "coordinates": [ -0.524406460192417, 53.268076855358665 ] } },
{ "type": "Feature", "properties": { "row_post_id": null, "vine_id": "ROW05VINE09", "vine_uuid": "0839bc70-bdb8-4cfe-a181-012a2b299520", "feature_name": "ROW05VINE09", "vine_vine_row_id": "row_5", "variety": "Chardonnay", "clone": "Unknown", "rootstock": "Unknown", "grape_number": 15.0, "grape_yield": 4.015958691, "image_url": "", "image_timestamp": "", "measured_or_calulated": "measured", "feature_type": "vine" }, "geometry": { "type": "Point", "coordinates": [ -0.524399529650257, 53.268067387766834 ] } },
{ "type": "Feature", "properties": { "row_post_id": null, "vine_id": "ROW05VINE10", "vine_uuid": "edd18067-3b50-416e-87f8-616e0c2e639d", "feature_name": "ROW05VINE10", "vine_vine_row_id": "row_5", "variety": "Chardonnay", "clone": "Unknown", "rootstock": "Unknown", "grape_number": 30.0, "grape_yield": 4.422648431, "image_url": "", "image_timestamp": "", "measured_or_calulated": "measured", "feature_type": "vine" }, "geometry": { "type": "Point", "coordinates": [ -0.524397115813903, 53.268060568728423 ] } },
{ "type": "Feature", "properties": { "row_post_id": null, "vine_id": "ROW05VINE11", "vine_uuid": "0e07af71-5413-45f1-8a71-6f1475f27c20", "feature_name": "ROW05VINE11", "vine_vine_row_id": "row_5", "variety": "Chardonnay", "clone": "Unknown", "rootstock": "Unknown", "grape_number": 32.0, "grape_yield": 4.953050154, "image_url": "", "image_timestamp": "", "measured_or_calulated": "measured", "feature_type": "vine" }, "geometry": { "type": "Point", "coordinates": [ -0.524398130857916, 53.268045862884755 ] } },
{ "type": "Feature", "properties": { "row_post_id": null, "vine_id": "ROW05VINE12", "vine_uuid": "f6f73652-c1ea-4b74-b0e4-dd41926c9a87", "feature_name": "ROW05VINE12", "vine_vine_row_id": "row_5", "variety": "Chardonnay", "clone": "Unknown", "rootstock": "Unknown", "grape_number": 27.0, "grape_yield": 5.327702563, "image_url": "", "image_timestamp": "", "measured_or_calulated": "measured", "feature_type": "vine" }, "geometry": { "type": "Point", "coordinates": [ -0.524387727977293, 53.268032540841595 ] } },
{ "type": "Feature", "properties": { "row_post_id": null, "vine_id": "ROW06VINE01", "vine_uuid": "f40b80f1-9ab9-4a15-af09-319c84f31df6", "feature_name": "ROW06VINE01", "vine_vine_row_id": "row_6", "variety": "Chardonnay", "clone": "Unknown", "rootstock": "Unknown", "grape_number": 12.0, "grape_yield": 3.981720845, "image_url": "", "image_timestamp": "", "measured_or_calulated": "measured", "feature_type": "vine" }, "geometry": { "type": "Point", "coordinates": [ -0.524457350695176, 53.268164963893256 ] } },
{ "type": "Feature", "properties": { "row_post_id": null, "vine_id": "ROW06VINE02", "vine_uuid": "2d7b6f31-fc07-4c40-9934-cd9d561925f6", "feature_name": "ROW06VINE02", "vine_vine_row_id": "row_6", "variety": "Chardonnay", "clone": "Unknown", "rootstock": "Unknown", "grape_number": 34.0, "grape_yield": 1.875684746, "image_url": "", "image_timestamp": "", "measured_or_calulated": "measured", "feature_type": "vine" }, "geometry": { "type": "Point", "coordinates": [ -0.524460827416026, 53.268154865695521 ] } },
{ "type": "Feature", "properties": { "row_post_id": null, "vine_id": "ROW06VINE03", "vine_uuid": "9c965720-27a0-4cea-94a3-4aa13b119a16", "feature_name": "ROW06VINE03", "vine_vine_row_id": "row_6", "variety": "Chardonnay", "clone": "Unknown", "rootstock": "Unknown", "grape_number": 23.0, "grape_yield": 2.135906405, "image_url": "", "image_timestamp": "", "measured_or_calulated": "measured", "feature_type": "vine" }, "geometry": { "type": "Point", "coordinates": [ -0.524452672082702, 53.268143635582696 ] } },
{ "type": "Feature", "properties": { "row_post_id": null, "vine_id": "ROW06VINE04", "vine_uuid": "df8d8b26-9797-4af2-b2bc-e0cb2d968478", "feature_name": "ROW06VINE04", "vine_vine_row_id": "row_6", "variety": "Chardonnay", "clone": "Unknown", "rootstock": "Unknown", "grape_number": 15.0, "grape_yield": 3.729021425, "image_url": "", "image_timestamp": "", "measured_or_calulated": "measured", "feature_type": "vine" }, "geometry": { "type": "Point", "coordinates": [ -0.524451134308612, 53.268131988638991 ] } },
{ "type": "Feature", "properties": { "row_post_id": null, "vine_id": "ROW06VINE05", "vine_uuid": "a819a203-d3c7-4cac-851b-18e59a2c08fd", "feature_name": "ROW06VINE05", "vine_vine_row_id": "row_6", "variety": "Chardonnay", "clone": "Unknown", "rootstock": "Unknown", "grape_number": 48.0, "grape_yield": 6.269060394, "image_url": "", "image_timestamp": "", "measured_or_calulated": "measured", "feature_type": "vine" }, "geometry": { "type": "Point", "coordinates": [ -0.524450613969737, 53.268113731338701 ] } },
{ "type": "Feature", "properties": { "row_post_id": null, "vine_id": "ROW06VINE06", "vine_uuid": "40207a06-cf86-4307-9d17-b418ce6561ee", "feature_name": "ROW06VINE06", "vine_vine_row_id": "row_6", "variety": "Chardonnay", "clone": "Unknown", "rootstock": "Unknown", "grape_number": 37.0, "grape_yield": 9.886247426000001, "image_url": "", "image_timestamp": "", "measured_or_calulated": "measured", "feature_type": "vine" }, "geometry": { "type": "Point", "coordinates": [ -0.524454431748615, 53.268101625652321 ] } },
{ "type": "Feature", "properties": { "row_post_id": null, "vine_id": "ROW06VINE07", "vine_uuid": "120ff4ad-bfbc-4cb1-8e9a-eba3b1c4e2da", "feature_name": "ROW06VINE07", "vine_vine_row_id": "row_6", "variety": "Chardonnay", "clone": "Unknown", "rootstock": "Unknown", "grape_number": 11.0, "grape_yield": 2.334161735, "image_url": "", "image_timestamp": "", "measured_or_calulated": "measured", "feature_type": "vine" }, "geometry": { "type": "Point", "coordinates": [ -0.524440314822318, 53.268087847331692 ] } },
{ "type": "Feature", "properties": { "row_post_id": null, "vine_id": "ROW06VINE08", "vine_uuid": "b1addafd-a560-494c-aca6-c67fa85b0067", "feature_name": "ROW06VINE08", "vine_vine_row_id": "row_6", "variety": "Chardonnay", "clone": "Unknown", "rootstock": "Unknown", "grape_number": 34.0, "grape_yield": 4.675349764, "image_url": "", "image_timestamp": "", "measured_or_calulated": "measured", "feature_type": "vine" }, "geometry": { "type": "Point", "coordinates": [ -0.524441920737166, 53.268083314801842 ] } },
{ "type": "Feature", "properties": { "row_post_id": null, "vine_id": "ROW06VINE09", "vine_uuid": "97caf126-8109-4d30-9901-3904c4ea5e63", "feature_name": "ROW06VINE09", "vine_vine_row_id": "row_6", "variety": "Chardonnay", "clone": "Unknown", "rootstock": "Unknown", "grape_number": 13.0, "grape_yield": 8.54925078, "image_url": "", "image_timestamp": "", "measured_or_calulated": "measured", "feature_type": "vine" }, "geometry": { "type": "Point", "coordinates": [ -0.524433336381006, 53.268069805165943 ] } },
{ "type": "Feature", "properties": { "row_post_id": null, "vine_id": "ROW06VINE10", "vine_uuid": "5c395983-6988-4dea-86af-d37e87fe8233", "feature_name": "ROW06VINE10", "vine_vine_row_id": "row_6", "variety": "Chardonnay", "clone": "Unknown", "rootstock": "Unknown", "grape_number": 46.0, "grape_yield": 7.540424796, "image_url": "", "image_timestamp": "", "measured_or_calulated": "measured", "feature_type": "vine" }, "geometry": { "type": "Point", "coordinates": [ -0.524438272570036, 53.268048134107516 ] } },
{ "type": "Feature", "properties": { "row_post_id": null, "vine_id": "ROW06VINE11", "vine_uuid": "082642cd-5afb-42db-8d52-46dabcfe7264", "feature_name": "ROW06VINE11", "vine_vine_row_id": "row_6", "variety": "Chardonnay", "clone": "Unknown", "rootstock": "Unknown", "grape_number": 33.0, "grape_yield": 9.11415724, "image_url": "", "image_timestamp": "", "measured_or_calulated": "measured", "feature_type": "vine" }, "geometry": { "type": "Point", "coordinates": [ -0.524425805076117, 53.268038080777572 ] } },
{ "type": "Feature", "properties": { "row_post_id": null, "vine_id": "ROW06VINE12", "vine_uuid": "cd9c1509-0aae-4522-9253-2037b9b7b49d", "feature_name": "ROW06VINE12", "vine_vine_row_id": "row_6", "variety": "Chardonnay", "clone": "Unknown", "rootstock": "Unknown", "grape_number": 50.0, "grape_yield": 7.698132673, "image_url": "", "image_timestamp": "", "measured_or_calulated": "measured", "feature_type": "vine" }, "geometry": { "type": "Point", "coordinates": [ -0.524427071324796, 53.26802875033507 ] } },
{ "type": "Feature", "properties": { "row_post_id": null, "vine_id": "ROW07VINE01", "vine_uuid": "d063be5c-59b0-45e8-8030-beff5c78f44c", "feature_name": "ROW07VINE01", "vine_vine_row_id": "row_7", "variety": "Voltis", "clone": "Unknown", "rootstock": "Unknown", "grape_number": 18.0, "grape_yield": 9.510240727, "image_url": "", "image_timestamp": "", "measured_or_calulated": "measured", "feature_type": "vine" }, "geometry": { "type": "Point", "coordinates": [ -0.524501932124561, 53.268165269720477 ] } },
{ "type": "Feature", "properties": { "row_post_id": null, "vine_id": "ROW07VINE02", "vine_uuid": "460a530b-1f44-430f-8336-ba81e2e3c406", "feature_name": "ROW07VINE02", "vine_vine_row_id": "row_7", "variety": "Voltis", "clone": "Unknown", "rootstock": "Unknown", "grape_number": 39.0, "grape_yield": 3.509421614, "image_url": "", "image_timestamp": "", "measured_or_calulated": "measured", "feature_type": "vine" }, "geometry": { "type": "Point", "coordinates": [ -0.524489396221946, 53.268150647553298 ] } },
{ "type": "Feature", "properties": { "row_post_id": null, "vine_id": "ROW07VINE03", "vine_uuid": "7c63193c-f112-4979-ad0f-53154615b8ef", "feature_name": "ROW07VINE03", "vine_vine_row_id": "row_7", "variety": "Voltis", "clone": "Unknown", "rootstock": "Unknown", "grape_number": 13.0, "grape_yield": 1.940001508, "image_url": "", "image_timestamp": "", "measured_or_calulated": "measured", "feature_type": "vine" }, "geometry": { "type": "Point", "coordinates": [ -0.52449239560119, 53.268137802099815 ] } },
{ "type": "Feature", "properties": { "row_post_id": null, "vine_id": "ROW07VINE04", "vine_uuid": "4802f9a5-c503-41ec-a214-4a61d79dabab", "feature_name": "ROW07VINE04", "vine_vine_row_id": "row_7", "variety": "Voltis", "clone": "Unknown", "rootstock": "Unknown", "grape_number": 12.0, "grape_yield": 6.31257765, "image_url": "", "image_timestamp": "", "measured_or_calulated": "measured", "feature_type": "vine" }, "geometry": { "type": "Point", "coordinates": [ -0.524493505161507, 53.268124868516722 ] } },
{ "type": "Feature", "properties": { "row_post_id": null, "vine_id": "ROW07VINE05", "vine_uuid": "30d7bde3-213a-49b6-a83d-cd21cdb8cf65", "feature_name": "ROW07VINE05", "vine_vine_row_id": "row_7", "variety": "Voltis", "clone": "Unknown", "rootstock": "Unknown", "grape_number": 28.0, "grape_yield": 4.011814476, "image_url": "", "image_timestamp": "", "measured_or_calulated": "measured", "feature_type": "vine" }, "geometry": { "type": "Point", "coordinates": [ -0.524487443555269, 53.268110684766569 ] } },
{ "type": "Feature", "properties": { "row_post_id": null, "vine_id": "ROW07VINE06", "vine_uuid": "b8c0684e-2401-4a4f-a051-1c01bccde9f3", "feature_name": "ROW07VINE06", "vine_vine_row_id": "row_7", "variety": "Voltis", "clone": "Unknown", "rootstock": "Unknown", "grape_number": 40.0, "grape_yield": 3.012388163, "image_url": "", "image_timestamp": "", "measured_or_calulated": "measured", "feature_type": "vine" }, "geometry": { "type": "Point", "coordinates": [ -0.524480634816629, 53.268097601263747 ] } },
{ "type": "Feature", "properties": { "row_post_id": null, "vine_id": "ROW07VINE07", "vine_uuid": "54a3798f-52dc-46b3-a0d4-f4eaf0f0ceeb", "feature_name": "ROW07VINE07", "vine_vine_row_id": "row_7", "variety": "Voltis", "clone": "Unknown", "rootstock": "Unknown", "grape_number": 13.0, "grape_yield": 9.712649527, "image_url": "", "image_timestamp": "", "measured_or_calulated": "measured", "feature_type": "vine" }, "geometry": { "type": "Point", "coordinates": [ -0.524482870367559, 53.268082507208447 ] } },
{ "type": "Feature", "properties": { "row_post_id": null, "vine_id": "ROW07VINE08", "vine_uuid": "0e6bb420-fa68-4d65-9bfa-2b71ef5efc02", "feature_name": "ROW07VINE08", "vine_vine_row_id": "row_7", "variety": "Voltis", "clone": "Unknown", "rootstock": "Unknown", "grape_number": 23.0, "grape_yield": 6.795304622, "image_url": "", "image_timestamp": "", "measured_or_calulated": "measured", "feature_type": "vine" }, "geometry": { "type": "Point", "coordinates": [ -0.524476043073157, 53.26807684861722 ] } },
{ "type": "Feature", "properties": { "row_post_id": null, "vine_id": "ROW07VINE09", "vine_uuid": "4d2f385d-82a7-4c0c-931d-399343086125", "feature_name": "ROW07VINE09", "vine_vine_row_id": "row_7", "variety": "Voltis", "clone": "Unknown", "rootstock": "Unknown", "grape_number": 26.0, "grape_yield": 1.790535818, "image_url": "", "image_timestamp": "", "measured_or_calulated": "measured", "feature_type": "vine" }, "geometry": { "type": "Point", "coordinates": [ -0.524471904636179, 53.268069273230225 ] } },
{ "type": "Feature", "properties": { "row_post_id": null, "vine_id": "ROW07VINE10", "vine_uuid": "6246294e-46e6-4a02-9969-81a92ffcdd78", "feature_name": "ROW07VINE10", "vine_vine_row_id": "row_7", "variety": "Voltis", "clone": "Unknown", "rootstock": "Unknown", "grape_number": 16.0, "grape_yield": 4.443678536, "image_url": "", "image_timestamp": "", "measured_or_calulated": "measured", "feature_type": "vine" }, "geometry": { "type": "Point", "coordinates": [ -0.52446848274969, 53.268048401974937 ] } },
{ "type": "Feature", "properties": { "row_post_id": null, "vine_id": "ROW07VINE11", "vine_uuid": "f4b3c457-832e-43a3-b222-27fe88509ba8", "feature_name": "ROW07VINE11", "vine_vine_row_id": "row_7", "variety": "Voltis", "clone": "Unknown", "rootstock": "Unknown", "grape_number": 18.0, "grape_yield": 0.293489307, "image_url": "http://cabbage-xps-8900:9000/riseholme/Block_1/row_7/ROW07VINE11/robot_vine_2.png?X-Amz-Algorithm=AWS4-HMAC-SHA256&X-Amz-Credential=KODXtyXxsNTbFrLEitSg%2F20250326%2Fus-east-1%2Fs3%2Faws4_request&X-Amz-Date=20250326T161247Z&X-Amz-Expires=604800&X-Amz-SignedHeaders=host&X-Amz-Signature=8c5b172a3308efa291c59bcc9e4fe6c34fecbbeaaddfd82717e5a1ddab75784f", "image_timestamp": "2024-08-13 13:08:00", "measured_or_calulated": "measured", "feature_type": "vine" }, "geometry": { "type": "Point", "coordinates": [ -0.524458324565834, 53.268035426538972 ] } },
{ "type": "Feature", "properties": { "row_post_id": null, "vine_id": "ROW07VINE12", "vine_uuid": "fc48833b-a14a-44c0-91f7-a96f358bc306", "feature_name": "ROW07VINE12", "vine_vine_row_id": "row_7", "variety": "Voltis", "clone": "Unknown", "rootstock": "Unknown", "grape_number": 32.0, "grape_yield": 8.188481499, "image_url": "", "image_timestamp": "", "measured_or_calulated": "measured", "feature_type": "vine" }, "geometry": { "type": "Point", "coordinates": [ -0.52446241977831, 53.268027087080227 ] } },
{ "type": "Feature", "properties": { "row_post_id": null, "vine_id": "ROW08VINE01", "vine_uuid": "b8970570-7b77-443f-b3f4-02f3575b534d", "feature_name": "ROW08VINE01", "vine_vine_row_id": "row_8", "variety": "Voltis", "clone": "Unknown", "rootstock": "Unknown", "grape_number": 29.0, "grape_yield": 2.000877033, "image_url": "", "image_timestamp": "", "measured_or_calulated": "measured", "feature_type": "vine" }, "geometry": { "type": "Point", "coordinates": [ -0.524538423483581, 53.268162591210242 ] } },
{ "type": "Feature", "properties": { "row_post_id": null, "vine_id": "ROW08VINE02", "vine_uuid": "c97269f9-c359-459d-b4ec-81b6a170f4d3", "feature_name": "ROW08VINE02", "vine_vine_row_id": "row_8", "variety": "Voltis", "clone": "Unknown", "rootstock": "Unknown", "grape_number": 34.0, "grape_yield": 3.542842611, "image_url": "", "image_timestamp": "", "measured_or_calulated": "measured", "feature_type": "vine" }, "geometry": { "type": "Point", "coordinates": [ -0.524531677972223, 53.268148384298655 ] } },
{ "type": "Feature", "properties": { "row_post_id": null, "vine_id": "ROW08VINE03", "vine_uuid": "4efd105c-bb46-4f3e-b822-2a7bce4ed349", "feature_name": "ROW08VINE03", "vine_vine_row_id": "row_8", "variety": "Voltis", "clone": "Unknown", "rootstock": "Unknown", "grape_number": 43.0, "grape_yield": 2.661631492, "image_url": "", "image_timestamp": "", "measured_or_calulated": "measured", "feature_type": "vine" }, "geometry": { "type": "Point", "coordinates": [ -0.524532251575264, 53.268137107181659 ] } },
{ "type": "Feature", "properties": { "row_post_id": null, "vine_id": "ROW08VINE04", "vine_uuid": "4b24ee4e-e088-462d-8970-81b7f5c3151d", "feature_name": "ROW08VINE04", "vine_vine_row_id": "row_8", "variety": "Voltis", "clone": "Unknown", "rootstock": "Unknown", "grape_number": 18.0, "grape_yield": 9.559733909, "image_url": "", "image_timestamp": "", "measured_or_calulated": "measured", "feature_type": "vine" }, "geometry": { "type": "Point", "coordinates": [ -0.524530295041752, 53.268117822480939 ] } },
{ "type": "Feature", "properties": { "row_post_id": null, "vine_id": "ROW08VINE05", "vine_uuid": "a5fe6587-350f-4c82-8868-7953dcdb857b", "feature_name": "ROW08VINE05", "vine_vine_row_id": "row_8", "variety": "Voltis", "clone": "Unknown", "rootstock": "Unknown", "grape_number": 39.0, "grape_yield": 3.0322187, "image_url": "", "image_timestamp": "", "measured_or_calulated": "measured", "feature_type": "vine" }, "geometry": { "type": "Point", "coordinates": [ -0.524518628316832, 53.268108251065527 ] } },
{ "type": "Feature", "properties": { "row_post_id": null, "vine_id": "ROW08VINE06", "vine_uuid": "c629c879-d6f7-44d8-a715-8b9629d96c59", "feature_name": "ROW08VINE06", "vine_vine_row_id": "row_8", "variety": "Voltis", "clone": "Unknown", "rootstock": "Unknown", "grape_number": 46.0, "grape_yield": 6.060833102, "image_url": "", "image_timestamp": "", "measured_or_calulated": "measured", "feature_type": "vine" }, "geometry": { "type": "Point", "coordinates": [ -0.524519488090724, 53.268100793517085 ] } },
{ "type": "Feature", "properties": { "row_post_id": null, "vine_id": "ROW08VINE07", "vine_uuid": "6b34b09f-2a25-4285-ad91-bd70e6923f6b", "feature_name": "ROW08VINE07", "vine_vine_row_id": "row_8", "variety": "Voltis", "clone": "Unknown", "rootstock": "Unknown", "grape_number": 45.0, "grape_yield": 1.875882652, "image_url": "", "image_timestamp": "", "measured_or_calulated": "measured", "feature_type": "vine" }, "geometry": { "type": "Point", "coordinates": [ -0.524512591781395, 53.268085642122685 ] } },
{ "type": "Feature", "properties": { "row_post_id": null, "vine_id": "ROW08VINE08", "vine_uuid": "4f46916c-231b-407d-9888-d3d3cd2bfacb", "feature_name": "ROW08VINE08", "vine_vine_row_id": "row_8", "variety": "Voltis", "clone": "Unknown", "rootstock": "Unknown", "grape_number": 17.0, "grape_yield": 4.372028198, "image_url": "", "image_timestamp": "", "measured_or_calulated": "measured", "feature_type": "vine" }, "geometry": { "type": "Point", "coordinates": [ -0.5245101476103, 53.268070123399454 ] } },
{ "type": "Feature", "properties": { "row_post_id": null, "vine_id": "ROW08VINE09", "vine_uuid": "03ba1b96-c2c6-4f5d-8c0f-5fe05052948f", "feature_name": "ROW08VINE09", "vine_vine_row_id": "row_8", "variety": "Voltis", "clone": "Unknown", "rootstock": "Unknown", "grape_number": 19.0, "grape_yield": 0.84900796, "image_url": "", "image_timestamp": "", "measured_or_calulated": "measured", "feature_type": "vine" }, "geometry": { "type": "Point", "coordinates": [ -0.524507995689393, 53.268061833399436 ] } },
{ "type": "Feature", "properties": { "row_post_id": null, "vine_id": "ROW08VINE10", "vine_uuid": "c507a42c-4f1b-4695-91bc-37984ade1a91", "feature_name": "ROW08VINE10", "vine_vine_row_id": "row_8", "variety": "Voltis", "clone": "Unknown", "rootstock": "Unknown", "grape_number": 36.0, "grape_yield": 4.144151628, "image_url": "", "image_timestamp": "", "measured_or_calulated": "measured", "feature_type": "vine" }, "geometry": { "type": "Point", "coordinates": [ -0.524505307460328, 53.268046702920721 ] } },
{ "type": "Feature", "properties": { "row_post_id": null, "vine_id": "ROW08VINE11", "vine_uuid": "06d8399c-4800-4045-a046-5e231a4f5d9a", "feature_name": "ROW08VINE11", "vine_vine_row_id": "row_8", "variety": "Voltis", "clone": "Unknown", "rootstock": "Unknown", "grape_number": 37.0, "grape_yield": 9.037400157, "image_url": "", "image_timestamp": "", "measured_or_calulated": "measured", "feature_type": "vine" }, "geometry": { "type": "Point", "coordinates": [ -0.524519661604704, 53.268036552745677 ] } },
{ "type": "Feature", "properties": { "row_post_id": null, "vine_id": "ROW08VINE12", "vine_uuid": "53379a78-f6bc-430a-bd4e-cf442f1892e2", "feature_name": "ROW08VINE12", "vine_vine_row_id": "row_8", "variety": "Voltis", "clone": "Unknown", "rootstock": "Unknown", "grape_number": 27.0, "grape_yield": 9.854231227, "image_url": "", "image_timestamp": "", "measured_or_calulated": "measured", "feature_type": "vine" }, "geometry": { "type": "Point", "coordinates": [ -0.524502087744456, 53.268021441357824 ] } },
{ "type": "Feature", "properties": { "row_post_id": null, "vine_id": "ROW09VINE01", "vine_uuid": "e9b9d0d8-9c49-4c24-ad6e-919af596ed3a", "feature_name": "ROW09VINE01", "vine_vine_row_id": "row_9", "variety": "Phoenix", "clone": "Unknown", "rootstock": "Unknown", "grape_number": 42.0, "grape_yield": 3.776671813, "image_url": "http://cabbage-xps-8900:9000/riseholme/Block_1/row_9/ROW09VINE01/2024-08-14T14%3A19%3A52%2B00%3A00Z_photo.jpg?X-Amz-Algorithm=AWS4-HMAC-SHA256&X-Amz-Credential=KODXtyXxsNTbFrLEitSg%2F20250326%2Fus-east-1%2Fs3%2Faws4_request&X-Amz-Date=20250326T161247Z&X-Amz-Expires=604800&X-Amz-SignedHeaders=host&X-Amz-Signature=a87a01e41f4df76b062132bef425f0c6a2e1bcb229aeac30d51a0de2982d0b6c", "image_timestamp": "2024-08-14 14:19:52", "measured_or_calulated": "measured", "feature_type": "vine" }, "geometry": { "type": "Point", "coordinates": [ -0.524570171566802, 53.268156556017345 ] } },
{ "type": "Feature", "properties": { "row_post_id": null, "vine_id": "ROW09VINE02", "vine_uuid": "55485269-4bbd-4958-875a-97ee51767393", "feature_name": "ROW09VINE02", "vine_vine_row_id": "row_9", "variety": "Phoenix", "clone": "Unknown", "rootstock": "Unknown", "grape_number": 40.0, "grape_yield": 2.402399829, "image_url": "", "image_timestamp": "", "measured_or_calulated": "measured", "feature_type": "vine" }, "geometry": { "type": "Point", "coordinates": [ -0.524569508693435, 53.268140363239986 ] } },
{ "type": "Feature", "properties": { "row_post_id": null, "vine_id": "ROW09VINE03", "vine_uuid": "d552bd76-a97c-4cca-8c0a-9b4841530ed4", "feature_name": "ROW09VINE03", "vine_vine_row_id": "row_9", "variety": "Phoenix", "clone": "Unknown", "rootstock": "Unknown", "grape_number": 35.0, "grape_yield": 9.965625002, "image_url": "", "image_timestamp": "", "measured_or_calulated": "measured", "feature_type": "vine" }, "geometry": { "type": "Point", "coordinates": [ -0.524572887039847, 53.268131985430792 ] } },
{ "type": "Feature", "properties": { "row_post_id": null, "vine_id": "ROW09VINE04", "vine_uuid": "2530af61-81bb-405e-8f99-9223e16d7f94", "feature_name": "ROW09VINE04", "vine_vine_row_id": "row_9", "variety": "Phoenix", "clone": "Unknown", "rootstock": "Unknown", "grape_number": 11.0, "grape_yield": 3.144331966, "image_url": "", "image_timestamp": "", "measured_or_calulated": "measured", "feature_type": "vine" }, "geometry": { "type": "Point", "coordinates": [ -0.524563787166339, 53.268118555578653 ] } },
{ "type": "Feature", "properties": { "row_post_id": null, "vine_id": "ROW09VINE05", "vine_uuid": "9a89806a-dab6-490b-9901-178a352bfac1", "feature_name": "ROW09VINE05", "vine_vine_row_id": "row_9", "variety": "Phoenix", "clone": "Unknown", "rootstock": "Unknown", "grape_number": 15.0, "grape_yield": 6.709863281, "image_url": "", "image_timestamp": "", "measured_or_calulated": "measured", "feature_type": "vine" }, "geometry": { "type": "Point", "coordinates": [ -0.524560303962607, 53.268107550850715 ] } },
{ "type": "Feature", "properties": { "row_post_id": null, "vine_id": "ROW09VINE06", "vine_uuid": "7297ca81-43bf-47b4-8116-6a3863af8837", "feature_name": "ROW09VINE06", "vine_vine_row_id": "row_9", "variety": "Phoenix", "clone": "Unknown", "rootstock": "Unknown", "grape_number": 42.0, "grape_yield": 8.87802217, "image_url": "", "image_timestamp": "", "measured_or_calulated": "measured", "feature_type": "vine" }, "geometry": { "type": "Point", "coordinates": [ -0.524557894463874, 53.268094651414813 ] } },
{ "type": "Feature", "properties": { "row_post_id": null, "vine_id": "ROW09VINE07", "vine_uuid": "846fbcba-2924-4a80-aa19-92b588dfc2be", "feature_name": "ROW09VINE07", "vine_vine_row_id": "row_9", "variety": "Phoenix", "clone": "Unknown", "rootstock": "Unknown", "grape_number": 50.0, "grape_yield": 7.771065376, "image_url": "", "image_timestamp": "", "measured_or_calulated": "measured", "feature_type": "vine" }, "geometry": { "type": "Point", "coordinates": [ -0.524553910265727, 53.268084196747211 ] } },
{ "type": "Feature", "properties": { "row_post_id": null, "vine_id": "ROW09VINE08", "vine_uuid": "cc653d51-6447-41ed-aea3-c7d55b6af6ab", "feature_name": "ROW09VINE08", "vine_vine_row_id": "row_9", "variety": "Phoenix", "clone": "Unknown", "rootstock": "Unknown", "grape_number": 43.0, "grape_yield": 2.891492288, "image_url": "", "image_timestamp": "", "measured_or_calulated": "measured", "feature_type": "vine" }, "geometry": { "type": "Point", "coordinates": [ -0.524554315452757, 53.26807159562027 ] } },
{ "type": "Feature", "properties": { "row_post_id": null, "vine_id": "ROW09VINE09", "vine_uuid": "53142921-e5b9-4ded-9a91-51590a557f68", "feature_name": "ROW09VINE09", "vine_vine_row_id": "row_9", "variety": "Phoenix", "clone": "Unknown", "rootstock": "Unknown", "grape_number": 46.0, "grape_yield": 8.544319221, "image_url": "", "image_timestamp": "", "measured_or_calulated": "measured", "feature_type": "vine" }, "geometry": { "type": "Point", "coordinates": [ -0.52454612309159, 53.268056687139975 ] } },
{ "type": "Feature", "properties": { "row_post_id": null, "vine_id": "ROW09VINE10", "vine_uuid": "36374d7b-5330-4892-8eb2-92974d59203e", "feature_name": "ROW09VINE10", "vine_vine_row_id": "row_9", "variety": "Phoenix", "clone": "Unknown", "rootstock": "Unknown", "grape_number": 20.0, "grape_yield": 1.524480204, "image_url": "", "image_timestamp": "", "measured_or_calulated": "measured", "feature_type": "vine" }, "geometry": { "type": "Point", "coordinates": [ -0.524547361377814, 53.268044665735836 ] } },
{ "type": "Feature", "properties": { "row_post_id": null, "vine_id": "ROW09VINE11", "vine_uuid": "02a7fcc9-cc56-487b-b9b5-46ac3967a89e", "feature_name": "ROW09VINE11", "vine_vine_row_id": "row_9", "variety": "Phoenix", "clone": "Unknown", "rootstock": "Unknown", "grape_number": 30.0, "grape_yield": 0.991242026, "image_url": "", "image_timestamp": "", "measured_or_calulated": "measured", "feature_type": "vine" }, "geometry": { "type": "Point", "coordinates": [ -0.524540113938685, 53.268029279298439 ] } },
{ "type": "Feature", "properties": { "row_post_id": null, "vine_id": "ROW09VINE12", "vine_uuid": "7b126d26-6a08-4bc7-9153-0d03d464218b", "feature_name": "ROW09VINE12", "vine_vine_row_id": "row_9", "variety": "Phoenix", "clone": "Unknown", "rootstock": "Unknown", "grape_number": 23.0, "grape_yield": 1.443019783, "image_url": "", "image_timestamp": "", "measured_or_calulated": "measured", "feature_type": "vine" }, "geometry": { "type": "Point", "coordinates": [ -0.524539488866271, 53.268019340526337 ] } },
{ "type": "Feature", "properties": { "row_post_id": null, "vine_id": "ROW10VINE01", "vine_uuid": "14174383-50c1-4f2e-b8a9-e47e22135107", "feature_name": "ROW10VINE01", "vine_vine_row_id": "row_10", "variety": "Phoenix", "clone": "Unknown", "rootstock": "Unknown", "grape_number": 23.0, "grape_yield": 9.553478955, "image_url": "http://cabbage-xps-8900:9000/riseholme/Block_1/row_10/ROW10VINE01/photo001.jpg?X-Amz-Algorithm=AWS4-HMAC-SHA256&X-Amz-Credential=KODXtyXxsNTbFrLEitSg%2F20250326%2Fus-east-1%2Fs3%2Faws4_request&X-Amz-Date=20250326T161247Z&X-Amz-Expires=604800&X-Amz-SignedHeaders=host&X-Amz-Signature=bb0293d612033f2bedd7d09f3b74a619b785adeab85b35aa9ba3e1740e1523b1", "image_timestamp": "2024-07-22 11:27:37", "measured_or_calulated": "measured", "feature_type": "vine" }, "geometry": { "type": "Point", "coordinates": [ -0.5246124565349, 53.268151661034985 ] } },
{ "type": "Feature", "properties": { "row_post_id": null, "vine_id": "ROW10VINE02", "vine_uuid": "22833f5e-4a80-41a2-bbea-21dbbee52427", "feature_name": "ROW10VINE02", "vine_vine_row_id": "row_10", "variety": "Phoenix", "clone": "Unknown", "rootstock": "Unknown", "grape_number": 35.0, "grape_yield": 7.620117126, "image_url": "http://cabbage-xps-8900:9000/riseholme/Block_1/row_10/ROW10VINE02/2024-08-07T09%3A49%3A33%2B00%3A00Z_photo.jpg?X-Amz-Algorithm=AWS4-HMAC-SHA256&X-Amz-Credential=KODXtyXxsNTbFrLEitSg%2F20250326%2Fus-east-1%2Fs3%2Faws4_request&X-Amz-Date=20250326T161247Z&X-Amz-Expires=604800&X-Amz-SignedHeaders=host&X-Amz-Signature=d9e6e8e825653ea90b752ce324abb09b55759e398ff9c68e484fc7de6fe0f64d", "image_timestamp": "2024-08-07 09:49:33", "measured_or_calulated": "measured", "feature_type": "vine" }, "geometry": { "type": "Point", "coordinates": [ -0.524614042131951, 53.268137633966063 ] } },
{ "type": "Feature", "properties": { "row_post_id": null, "vine_id": "ROW10VINE03", "vine_uuid": "01659e00-2e42-4d5c-b01a-f98a4fa441e7", "feature_name": "ROW10VINE03", "vine_vine_row_id": "row_10", "variety": "Phoenix", "clone": "Unknown", "rootstock": "Unknown", "grape_number": 38.0, "grape_yield": 5.432524619, "image_url": "http://cabbage-xps-8900:9000/riseholme/Block_1/row_10/ROW10VINE03/2024-08-14T14%3A16%3A48%2B00%3A00Z_photo.jpg?X-Amz-Algorithm=AWS4-HMAC-SHA256&X-Amz-Credential=KODXtyXxsNTbFrLEitSg%2F20250326%2Fus-east-1%2Fs3%2Faws4_request&X-Amz-Date=20250326T161247Z&X-Amz-Expires=604800&X-Amz-SignedHeaders=host&X-Amz-Signature=ce86ab413ed0e3a4f2273d8729e2ff28ada8109571e047d4967454fab59be433", "image_timestamp": "2024-08-14 14:16:48", "measured_or_calulated": "measured", "feature_type": "vine" }, "geometry": { "type": "Point", "coordinates": [ -0.524610567803697, 53.268126555295666 ] } },
{ "type": "Feature", "properties": { "row_post_id": null, "vine_id": "ROW10VINE04", "vine_uuid": "ccad17d3-b947-4dc0-a426-34acdf88b2db", "feature_name": "ROW10VINE04", "vine_vine_row_id": "row_10", "variety": "Phoenix", "clone": "Unknown", "rootstock": "Unknown", "grape_number": 44.0, "grape_yield": 1.435454372, "image_url": "http://cabbage-xps-8900:9000/riseholme/Block_1/row_10/ROW10VINE04/2024-08-07T09%3A49%3A39%2B00%3A00Z_photo.jpg?X-Amz-Algorithm=AWS4-HMAC-SHA256&X-Amz-Credential=KODXtyXxsNTbFrLEitSg%2F20250326%2Fus-east-1%2Fs3%2Faws4_request&X-Amz-Date=20250326T161247Z&X-Amz-Expires=604800&X-Amz-SignedHeaders=host&X-Amz-Signature=47a4f02badae004dc6b716e5a08dbb0559d6ff189755d4000c74e002edc3d9f2", "image_timestamp": "2024-08-07 09:49:39", "measured_or_calulated": "measured", "feature_type": "vine" }, "geometry": { "type": "Point", "coordinates": [ -0.524603787363664, 53.268114618289921 ] } },
{ "type": "Feature", "properties": { "row_post_id": null, "vine_id": "ROW10VINE05", "vine_uuid": "578a01eb-58ee-4d12-a518-390cfd3d1eba", "feature_name": "ROW10VINE05", "vine_vine_row_id": "row_10", "variety": "Phoenix", "clone": "Unknown", "rootstock": "Unknown", "grape_number": 49.0, "grape_yield": 6.49672717, "image_url": "http://cabbage-xps-8900:9000/riseholme/Block_1/row_10/ROW10VINE05/2024-08-07T09%3A49%3A42%2B00%3A00Z_photo.jpg?X-Amz-Algorithm=AWS4-HMAC-SHA256&X-Amz-Credential=KODXtyXxsNTbFrLEitSg%2F20250326%2Fus-east-1%2Fs3%2Faws4_request&X-Amz-Date=20250326T161247Z&X-Amz-Expires=604800&X-Amz-SignedHeaders=host&X-Amz-Signature=4cde199b4ee83839c612c778e54b2ed0dd206959045a1dfcbe1bb491132feca5", "image_timestamp": "2024-08-07 09:49:42", "measured_or_calulated": "measured", "feature_type": "vine" }, "geometry": { "type": "Point", "coordinates": [ -0.524596761797335, 53.268102629958413 ] } },
{ "type": "Feature", "properties": { "row_post_id": null, "vine_id": "ROW10VINE06", "vine_uuid": "68623e81-71d0-4f7f-b214-c865cc23d12f", "feature_name": "ROW10VINE06", "vine_vine_row_id": "row_10", "variety": "Phoenix", "clone": "Unknown", "rootstock": "Unknown", "grape_number": 11.0, "grape_yield": 8.251423313, "image_url": "", "image_timestamp": "", "measured_or_calulated": "measured", "feature_type": "vine" }, "geometry": { "type": "Point", "coordinates": [ -0.524598163419173, 53.268088805960041 ] } },
{ "type": "Feature", "properties": { "row_post_id": null, "vine_id": "ROW10VINE07", "vine_uuid": "7e3a9046-1e10-4d2f-b509-a4c1f63bd813", "feature_name": "ROW10VINE07", "vine_vine_row_id": "row_10", "variety": "Phoenix", "clone": "Unknown", "rootstock": "Unknown", "grape_number": 42.0, "grape_yield": 1.007338359, "image_url": "", "image_timestamp": "", "measured_or_calulated": "measured", "feature_type": "vine" }, "geometry": { "type": "Point", "coordinates": [ -0.524596662919302, 53.268078257590005 ] } },
{ "type": "Feature", "properties": { "row_post_id": null, "vine_id": "ROW10VINE08", "vine_uuid": "2544a8a1-3057-4077-923f-9a440e8f0f60", "feature_name": "ROW10VINE08", "vine_vine_row_id": "row_10", "variety": "Phoenix", "clone": "Unknown", "rootstock": "Unknown", "grape_number": 41.0, "grape_yield": 4.740417735, "image_url": "", "image_timestamp": "", "measured_or_calulated": "measured", "feature_type": "vine" }, "geometry": { "type": "Point", "coordinates": [ -0.524589541044198, 53.268069300446676 ] } },
{ "type": "Feature", "properties": { "row_post_id": null, "vine_id": "ROW10VINE09", "vine_uuid": "a00b1e92-d948-4a63-a720-37b74ec0cc75", "feature_name": "ROW10VINE09", "vine_vine_row_id": "row_10", "variety": "Phoenix", "clone": "Unknown", "rootstock": "Unknown", "grape_number": 10.0, "grape_yield": 1.99950288, "image_url": "http://cabbage-xps-8900:9000/riseholme/Block_1/row_10/ROW10VINE09/2024-08-07T09%3A50%3A11%2B00%3A00Z_photo.jpg?X-Amz-Algorithm=AWS4-HMAC-SHA256&X-Amz-Credential=KODXtyXxsNTbFrLEitSg%2F20250326%2Fus-east-1%2Fs3%2Faws4_request&X-Amz-Date=20250326T161247Z&X-Amz-Expires=604800&X-Amz-SignedHeaders=host&X-Amz-Signature=e1382f94e42f3b8a9926001ccd5454dcd312d1347a014b7d5f9649678243bcb3", "image_timestamp": "2024-08-07 09:50:11", "measured_or_calulated": "measured", "feature_type": "vine" }, "geometry": { "type": "Point", "coordinates": [ -0.524579702897431, 53.268056568782455 ] } },
{ "type": "Feature", "properties": { "row_post_id": null, "vine_id": "ROW10VINE10", "vine_uuid": "a2f498a4-dfd7-4b5c-b1a4-43eae2c28c08", "feature_name": "ROW10VINE10", "vine_vine_row_id": "row_10", "variety": "Phoenix", "clone": "Unknown", "rootstock": "Unknown", "grape_number": 40.0, "grape_yield": 4.305640059, "image_url": "", "image_timestamp": "", "measured_or_calulated": "measured", "feature_type": "vine" }, "geometry": { "type": "Point", "coordinates": [ -0.524575051235728, 53.268037475749423 ] } },
{ "type": "Feature", "properties": { "row_post_id": null, "vine_id": "ROW10VINE11", "vine_uuid": "b4430d54-227b-404f-847d-4fbdc3d56637", "feature_name": "ROW10VINE11", "vine_vine_row_id": "row_10", "variety": "Phoenix", "clone": "Unknown", "rootstock": "Unknown", "grape_number": 45.0, "grape_yield": 1.277685275, "image_url": "", "image_timestamp": "", "measured_or_calulated": "measured", "feature_type": "vine" }, "geometry": { "type": "Point", "coordinates": [ -0.524577110951823, 53.268030036333016 ] } },
{ "type": "Feature", "properties": { "row_post_id": null, "vine_id": "ROW10VINE12", "vine_uuid": "1322c2f5-3fb2-4258-985a-1bb71d02c290", "feature_name": "ROW10VINE12", "vine_vine_row_id": "row_10", "variety": "Phoenix", "clone": "Unknown", "rootstock": "Unknown", "grape_number": 48.0, "grape_yield": 2.759409533, "image_url": "", "image_timestamp": "", "measured_or_calulated": "measured", "feature_type": "vine" }, "geometry": { "type": "Point", "coordinates": [ -0.524574410648749, 53.268021657666274 ] } },
{ "type": "Feature", "properties": { "row_post_id": "row_1_post_0", "vine_id": null, "vine_uuid": null, "feature_name": "row_1_post_0", "vine_vine_row_id": null, "variety": null, "clone": null, "rootstock": null, "grape_number": null, "grape_yield": null, "image_url": null, "image_timestamp": null, "measured_or_calulated": "calulated", "feature_type": "row_post" }, "geometry": { "type": "Point", "coordinates": [ -0.52426736863222, 53.26819000138844 ] } },
{ "type": "Feature", "properties": { "row_post_id": "row_1_post_1", "vine_id": null, "vine_uuid": null, "feature_name": "row_1_post_1", "vine_vine_row_id": null, "variety": null, "clone": null, "rootstock": null, "grape_number": null, "grape_yield": null, "image_url": null, "image_timestamp": null, "measured_or_calulated": "calulated", "feature_type": "row_post" }, "geometry": { "type": "Point", "coordinates": [ -0.524262366307856, 53.268135429226874 ] } },
{ "type": "Feature", "properties": { "row_post_id": "row_1_post_2", "vine_id": null, "vine_uuid": null, "feature_name": "row_1_post_2", "vine_vine_row_id": null, "variety": null, "clone": null, "rootstock": null, "grape_number": null, "grape_yield": null, "image_url": null, "image_timestamp": null, "measured_or_calulated": "calulated", "feature_type": "row_post" }, "geometry": { "type": "Point", "coordinates": [ -0.5242564381694, 53.268089659272917 ] } },
{ "type": "Feature", "properties": { "row_post_id": "row_1_post_3", "vine_id": null, "vine_uuid": null, "feature_name": "row_1_post_3", "vine_vine_row_id": null, "variety": null, "clone": null, "rootstock": null, "grape_number": null, "grape_yield": null, "image_url": null, "image_timestamp": null, "measured_or_calulated": "calulated", "feature_type": "row_post" }, "geometry": { "type": "Point", "coordinates": [ -0.524240455909075, 53.26803501856741 ] } },
{ "type": "Feature", "properties": { "row_post_id": "row_2_post_0", "vine_id": null, "vine_uuid": null, "feature_name": "row_2_post_0", "vine_vine_row_id": null, "variety": null, "clone": null, "rootstock": null, "grape_number": null, "grape_yield": null, "image_url": null, "image_timestamp": null, "measured_or_calulated": "calulated", "feature_type": "row_post" }, "geometry": { "type": "Point", "coordinates": [ -0.524314417750117, 53.268185817922586 ] } },
{ "type": "Feature", "properties": { "row_post_id": "row_2_post_1", "vine_id": null, "vine_uuid": null, "feature_name": "row_2_post_1", "vine_vine_row_id": null, "variety": null, "clone": null, "rootstock": null, "grape_number": null, "grape_yield": null, "image_url": null, "image_timestamp": null, "measured_or_calulated": "calulated", "feature_type": "row_post" }, "geometry": { "type": "Point", "coordinates": [ -0.524298175622805, 53.268134685430063 ] } },
{ "type": "Feature", "properties": { "row_post_id": "row_2_post_2", "vine_id": null, "vine_uuid": null, "feature_name": "row_2_post_2", "vine_vine_row_id": null, "variety": null, "clone": null, "rootstock": null, "grape_number": null, "grape_yield": null, "image_url": null, "image_timestamp": null, "measured_or_calulated": "calulated", "feature_type": "row_post" }, "geometry": { "type": "Point", "coordinates": [ -0.524290340736754, 53.26808503488202 ] } },
{ "type": "Feature", "properties": { "row_post_id": "row_2_post_3", "vine_id": null, "vine_uuid": null, "feature_name": "row_2_post_3", "vine_vine_row_id": null, "variety": null, "clone": null, "rootstock": null, "grape_number": null, "grape_yield": null, "image_url": null, "image_timestamp": null, "measured_or_calulated": "calulated", "feature_type": "row_post" }, "geometry": { "type": "Point", "coordinates": [ -0.52427650312236, 53.268032375126204 ] } },
{ "type": "Feature", "properties": { "row_post_id": "row_3_post_0", "vine_id": null, "vine_uuid": null, "feature_name": "row_3_post_0", "vine_vine_row_id": null, "variety": null, "clone": null, "rootstock": null, "grape_number": null, "grape_yield": null, "image_url": null, "image_timestamp": null, "measured_or_calulated": "calulated", "feature_type": "row_post" }, "geometry": { "type": "Point", "coordinates": [ -0.524348595053289, 53.268186852797186 ] } },
{ "type": "Feature", "properties": { "row_post_id": "row_3_post_1", "vine_id": null, "vine_uuid": null, "feature_name": "row_3_post_1", "vine_vine_row_id": null, "variety": null, "clone": null, "rootstock": null, "grape_number": null, "grape_yield": null, "image_url": null, "image_timestamp": null, "measured_or_calulated": "calulated", "feature_type": "row_post" }, "geometry": { "type": "Point", "coordinates": [ -0.524336805438408, 53.268128685227886 ] } },
{ "type": "Feature", "properties": { "row_post_id": "row_3_post_2", "vine_id": null, "vine_uuid": null, "feature_name": "row_3_post_2", "vine_vine_row_id": null, "variety": null, "clone": null, "rootstock": null, "grape_number": null, "grape_yield": null, "image_url": null, "image_timestamp": null, "measured_or_calulated": "calulated", "feature_type": "row_post" }, "geometry": { "type": "Point", "coordinates": [ -0.524327208521282, 53.268078028536024 ] } },
{ "type": "Feature", "properties": { "row_post_id": "row_3_post_3", "vine_id": null, "vine_uuid": null, "feature_name": "row_3_post_3", "vine_vine_row_id": null, "variety": null, "clone": null, "rootstock": null, "grape_number": null, "grape_yield": null, "image_url": null, "image_timestamp": null, "measured_or_calulated": "calulated", "feature_type": "row_post" }, "geometry": { "type": "Point", "coordinates": [ -0.524321764776632, 53.268033622429265 ] } },
{ "type": "Feature", "properties": { "row_post_id": "row_4_post_0", "vine_id": null, "vine_uuid": null, "feature_name": "row_4_post_0", "vine_vine_row_id": null, "variety": null, "clone": null, "rootstock": null, "grape_number": null, "grape_yield": null, "image_url": null, "image_timestamp": null, "measured_or_calulated": "calulated", "feature_type": "row_post" }, "geometry": { "type": "Point", "coordinates": [ -0.524388798368099, 53.268177451289368 ] } },
{ "type": "Feature", "properties": { "row_post_id": "row_4_post_1", "vine_id": null, "vine_uuid": null, "feature_name": "row_4_post_1", "vine_vine_row_id": null, "variety": null, "clone": null, "rootstock": null, "grape_number": null, "grape_yield": null, "image_url": null, "image_timestamp": null, "measured_or_calulated": "calulated", "feature_type": "row_post" }, "geometry": { "type": "Point", "coordinates": [ -0.524384648751562, 53.268126313441826 ] } },
{ "type": "Feature", "properties": { "row_post_id": "row_4_post_2", "vine_id": null, "vine_uuid": null, "feature_name": "row_4_post_2", "vine_vine_row_id": null, "variety": null, "clone": null, "rootstock": null, "grape_number": null, "grape_yield": null, "image_url": null, "image_timestamp": null, "measured_or_calulated": "calulated", "feature_type": "row_post" }, "geometry": { "type": "Point", "coordinates": [ -0.524363721776092, 53.268079058988292 ] } },
{ "type": "Feature", "properties": { "row_post_id": "row_4_post_3", "vine_id": null, "vine_uuid": null, "feature_name": "row_4_post_3", "vine_vine_row_id": null, "variety": null, "clone": null, "rootstock": null, "grape_number": null, "grape_yield": null, "image_url": null, "image_timestamp": null, "measured_or_calulated": "calulated", "feature_type": "row_post" }, "geometry": { "type": "Point", "coordinates": [ -0.524349219417735, 53.268032366604281 ] } },
{ "type": "Feature", "properties": { "row_post_id": "row_5_post_0", "vine_id": null, "vine_uuid": null, "feature_name": "row_5_post_0", "vine_vine_row_id": null, "variety": null, "clone": null, "rootstock": null, "grape_number": null, "grape_yield": null, "image_url": null, "image_timestamp": null, "measured_or_calulated": "calulated", "feature_type": "row_post" }, "geometry": { "type": "Point", "coordinates": [ -0.524427209652576, 53.268176079296687 ] } },
{ "type": "Feature", "properties": { "row_post_id": "row_5_post_1", "vine_id": null, "vine_uuid": null, "feature_name": "row_5_post_1", "vine_vine_row_id": null, "variety": null, "clone": null, "rootstock": null, "grape_number": null, "grape_yield": null, "image_url": null, "image_timestamp": null, "measured_or_calulated": "calulated", "feature_type": "row_post" }, "geometry": { "type": "Point", "coordinates": [ -0.524414247149432, 53.268124229243966 ] } },
{ "type": "Feature", "properties": { "row_post_id": "row_5_post_2", "vine_id": null, "vine_uuid": null, "feature_name": "row_5_post_2", "vine_vine_row_id": null, "variety": null, "clone": null, "rootstock": null, "grape_number": null, "grape_yield": null, "image_url": null, "image_timestamp": null, "measured_or_calulated": "calulated", "feature_type": "row_post" }, "geometry": { "type": "Point", "coordinates": [ -0.524402125396311, 53.268077842751403 ] } },
{ "type": "Feature", "properties": { "row_post_id": "row_5_post_3", "vine_id": null, "vine_uuid": null, "feature_name": "row_5_post_3", "vine_vine_row_id": null, "variety": null, "clone": null, "rootstock": null, "grape_number": null, "grape_yield": null, "image_url": null, "image_timestamp": null, "measured_or_calulated": "calulated", "feature_type": "row_post" }, "geometry": { "type": "Point", "coordinates": [ -0.524392703323504, 53.268028641814958 ] } },
{ "type": "Feature", "properties": { "row_post_id": "row_6_post_0", "vine_id": null, "vine_uuid": null, "feature_name": "row_6_post_0", "vine_vine_row_id": null, "variety": null, "clone": null, "rootstock": null, "grape_number": null, "grape_yield": null, "image_url": null, "image_timestamp": null, "measured_or_calulated": "calulated", "feature_type": "row_post" }, "geometry": { "type": "Point", "coordinates": [ -0.524457462963199, 53.268171965303971 ] } },
{ "type": "Feature", "properties": { "row_post_id": "row_6_post_1", "vine_id": null, "vine_uuid": null, "feature_name": "row_6_post_1", "vine_vine_row_id": null, "variety": null, "clone": null, "rootstock": null, "grape_number": null, "grape_yield": null, "image_url": null, "image_timestamp": null, "measured_or_calulated": "calulated", "feature_type": "row_post" }, "geometry": { "type": "Point", "coordinates": [ -0.524449895201046, 53.268118810458525 ] } },
{ "type": "Feature", "properties": { "row_post_id": "row_6_post_2", "vine_id": null, "vine_uuid": null, "feature_name": "row_6_post_2", "vine_vine_row_id": null, "variety": null, "clone": null, "rootstock": null, "grape_number": null, "grape_yield": null, "image_url": null, "image_timestamp": null, "measured_or_calulated": "calulated", "feature_type": "row_post" }, "geometry": { "type": "Point", "coordinates": [ -0.52442936619584, 53.268074014118071 ] } },
{ "type": "Feature", "properties": { "row_post_id": "row_6_post_3", "vine_id": null, "vine_uuid": null, "feature_name": "row_6_post_3", "vine_vine_row_id": null, "variety": null, "clone": null, "rootstock": null, "grape_number": null, "grape_yield": null, "image_url": null, "image_timestamp": null, "measured_or_calulated": "calulated", "feature_type": "row_post" }, "geometry": { "type": "Point", "coordinates": [ -0.524425347380733, 53.268022115554473 ] } },
{ "type": "Feature", "properties": { "row_post_id": "row_7_post_0", "vine_id": null, "vine_uuid": null, "feature_name": "row_7_post_0", "vine_vine_row_id": null, "variety": null, "clone": null, "rootstock": null, "grape_number": null, "grape_yield": null, "image_url": null, "image_timestamp": null, "measured_or_calulated": "calulated", "feature_type": "row_post" }, "geometry": { "type": "Point", "coordinates": [ -0.524498395625655, 53.268167502791556 ] } },
{ "type": "Feature", "properties": { "row_post_id": "row_7_post_1", "vine_id": null, "vine_uuid": null, "feature_name": "row_7_post_1", "vine_vine_row_id": null, "variety": null, "clone": null, "rootstock": null, "grape_number": null, "grape_yield": null, "image_url": null, "image_timestamp": null, "measured_or_calulated": "calulated", "feature_type": "row_post" }, "geometry": { "type": "Point", "coordinates": [ -0.524486725701981, 53.268116904389615 ] } },
{ "type": "Feature", "properties": { "row_post_id": "row_7_post_2", "vine_id": null, "vine_uuid": null, "feature_name": "row_7_post_2", "vine_vine_row_id": null, "variety": null, "clone": null, "rootstock": null, "grape_number": null, "grape_yield": null, "image_url": null, "image_timestamp": null, "measured_or_calulated": "calulated", "feature_type": "row_post" }, "geometry": { "type": "Point", "coordinates": [ -0.524473558893498, 53.268067438617429 ] } },
{ "type": "Feature", "properties": { "row_post_id": "row_7_post_3", "vine_id": null, "vine_uuid": null, "feature_name": "row_7_post_3", "vine_vine_row_id": null, "variety": null, "clone": null, "rootstock": null, "grape_number": null, "grape_yield": null, "image_url": null, "image_timestamp": null, "measured_or_calulated": "calulated", "feature_type": "row_post" }, "geometry": { "type": "Point", "coordinates": [ -0.52445966193934, 53.268018660087911 ] } },
{ "type": "Feature", "properties": { "row_post_id": "row_8_post_0", "vine_id": null, "vine_uuid": null, "feature_name": "row_8_post_0", "vine_vine_row_id": null, "variety": null, "clone": null, "rootstock": null, "grape_number": null, "grape_yield": null, "image_url": null, "image_timestamp": null, "measured_or_calulated": "calulated", "feature_type": "row_post" }, "geometry": { "type": "Point", "coordinates": [ -0.524535609361101, 53.268172626752303 ] } },
{ "type": "Feature", "properties": { "row_post_id": "row_8_post_1", "vine_id": null, "vine_uuid": null, "feature_name": "row_8_post_1", "vine_vine_row_id": null, "variety": null, "clone": null, "rootstock": null, "grape_number": null, "grape_yield": null, "image_url": null, "image_timestamp": null, "measured_or_calulated": "calulated", "feature_type": "row_post" }, "geometry": { "type": "Point", "coordinates": [ -0.524521620090611, 53.268116538692219 ] } },
{ "type": "Feature", "properties": { "row_post_id": "row_8_post_2", "vine_id": null, "vine_uuid": null, "feature_name": "row_8_post_2", "vine_vine_row_id": null, "variety": null, "clone": null, "rootstock": null, "grape_number": null, "grape_yield": null, "image_url": null, "image_timestamp": null, "measured_or_calulated": "calulated", "feature_type": "row_post" }, "geometry": { "type": "Point", "coordinates": [ -0.524512301937825, 53.268063663465071 ] } },
{ "type": "Feature", "properties": { "row_post_id": "row_8_post_3", "vine_id": null, "vine_uuid": null, "feature_name": "row_8_post_3", "vine_vine_row_id": null, "variety": null, "clone": null, "rootstock": null, "grape_number": null, "grape_yield": null, "image_url": null, "image_timestamp": null, "measured_or_calulated": "calulated", "feature_type": "row_post" }, "geometry": { "type": "Point", "coordinates": [ -0.524495731721256, 53.268019513159857 ] } },
{ "type": "Feature", "properties": { "row_post_id": "row_9_post_0", "vine_id": null, "vine_uuid": null, "feature_name": "row_9_post_0", "vine_vine_row_id": null, "variety": null, "clone": null, "rootstock": null, "grape_number": null, "grape_yield": null, "image_url": null, "image_timestamp": null, "measured_or_calulated": "calulated", "feature_type": "row_post" }, "geometry": { "type": "Point", "coordinates": [ -0.524573541427067, 53.268166759564089 ] } },
{ "type": "Feature", "properties": { "row_post_id": "row_9_post_1", "vine_id": null, "vine_uuid": null, "feature_name": "row_9_post_1", "vine_vine_row_id": null, "variety": null, "clone": null, "rootstock": null, "grape_number": null, "grape_yield": null, "image_url": null, "image_timestamp": null, "measured_or_calulated": "calulated", "feature_type": "row_post" }, "geometry": { "type": "Point", "coordinates": [ -0.52456231720436, 53.268109027948825 ] } },
{ "type": "Feature", "properties": { "row_post_id": "row_9_post_2", "vine_id": null, "vine_uuid": null, "feature_name": "row_9_post_2", "vine_vine_row_id": null, "variety": null, "clone": null, "rootstock": null, "grape_number": null, "grape_yield": null, "image_url": null, "image_timestamp": null, "measured_or_calulated": "calulated", "feature_type": "row_post" }, "geometry": { "type": "Point", "coordinates": [ -0.524551916836196, 53.268060677701548 ] } },
{ "type": "Feature", "properties": { "row_post_id": "row_9_post_3", "vine_id": null, "vine_uuid": null, "feature_name": "row_9_post_3", "vine_vine_row_id": null, "variety": null, "clone": null, "rootstock": null, "grape_number": null, "grape_yield": null, "image_url": null, "image_timestamp": null, "measured_or_calulated": "calulated", "feature_type": "row_post" }, "geometry": { "type": "Point", "coordinates": [ -0.52453794678728, 53.268014429026749 ] } },
{ "type": "Feature", "properties": { "row_post_id": "row_10_post_0", "vine_id": null, "vine_uuid": null, "feature_name": "row_10_post_0", "vine_vine_row_id": null, "variety": null, "clone": null, "rootstock": null, "grape_number": null, "grape_yield": null, "image_url": null, "image_timestamp": null, "measured_or_calulated": "calulated", "feature_type": "row_post" }, "geometry": { "type": "Point", "coordinates": [ -0.524614489391865, 53.268158892099876 ] } },
{ "type": "Feature", "properties": { "row_post_id": "row_10_post_1", "vine_id": null, "vine_uuid": null, "feature_name": "row_10_post_1", "vine_vine_row_id": null, "variety": null, "clone": null, "rootstock": null, "grape_number": null, "grape_yield": null, "image_url": null, "image_timestamp": null, "measured_or_calulated": "calulated", "feature_type": "row_post" }, "geometry": { "type": "Point", "coordinates": [ -0.524598348544902, 53.268107672062648 ] } },
{ "type": "Feature", "properties": { "row_post_id": "row_10_post_2", "vine_id": null, "vine_uuid": null, "feature_name": "row_10_post_2", "vine_vine_row_id": null, "variety": null, "clone": null, "rootstock": null, "grape_number": null, "grape_yield": null, "image_url": null, "image_timestamp": null, "measured_or_calulated": "calulated", "feature_type": "row_post" }, "geometry": { "type": "Point", "coordinates": [ -0.52459039405434, 53.268059933140236 ] } },
{ "type": "Feature", "properties": { "row_post_id": "row_10_post_3", "vine_id": null, "vine_uuid": null, "feature_name": "row_10_post_3", "vine_vine_row_id": null, "variety": null, "clone": null, "rootstock": null, "grape_number": null, "grape_yield": null, "image_url": null, "image_timestamp": null, "measured_or_calulated": "calulated", "feature_type": "row_post" }, "geometry": { "type": "Point", "coordinates": [ -0.524571811282357, 53.268008577797708 ] } }
]
}
